"spkid","H","diameter","albedo","rot_per","GM","BV","UB","IR","epoch","epoch_mjd","e","a","q","i","om","w","ma","ad","tp","per"
54097967,21.45,,,,,,,,2460600.5,60600,0.6523,1.931,0.671,16.67,56.03,275.95,184.38,3.19,2461078.75,980
54097969,19.90,,,,,,,,2460600.5,60600,0.6125,2.497,0.968,13.96,249.70,163.10,351.56,4.03,2460634.28,1.44e+03
54099615,21.27,,,,,,,,2459200.5,59200,0.7946,1.956,0.402,1.57,282.09,50.09,19.42,3.51,2459146.61,999
54100193,19.81,,,,,,,,2460600.5,60600,0.5428,1.614,0.738,8.60,98.64,115.19,269.92,2.49,2460787.86,749
54100290,19.99,,,,,,,,2460600.5,60600,0.5726,2.415,1.032,9.51,333.91,21.57,42.37,3.80,2460439.15,1.37e+03
54100581,21.04,,,12.679,,,,,2460600.5,60600,0.5474,2.216,1.003,3.89,164.32,6.66,33.91,3.43,2460487.01,1.21e+03
54101655,20.43,,,,,,,,2460600.5,60600,0.6026,1.982,0.788,48.93,283.31,71.22,162.83,3.18,2460139.54,1.02e+03
54101718,20.23,,,,,,,,2460600.5,60600,0.7390,2.209,0.577,15.17,132.69,78.75,26.35,3.84,2460512.70,1.2e+03
54102022,20.02,,,14.752,,,,,2460600.5,60600,0.5855,1.88,0.779,4.41,93.18,301.62,188.15,2.98,2461049.98,942
54105102,21.78,,,,,,,,2460600.5,60600,0.1624,1.16,0.971,15.78,49.54,172.44,277.96,1.35,2460704.44,456
54105560,20.57,,,,,,,,2460600.5,60600,0.6569,2.436,0.836,17.39,251.86,125.98,12.50,4.04,2460552.30,1.39e+03
54106303,18.93,,,,,,,,2460600.5,60600,0.7030,3.072,0.912,28.98,153.15,39.67,236.42,5.23,2461275.65,1.97e+03
54106739,20.22,,,,,,,,2460600.5,60600,0.5171,2.016,0.973,9.71,42.46,168.98,77.52,3.06,2460375.44,1.05e+03
54106307,20.60,,,,,,,,2460600.5,60600,0.7203,2.599,0.727,28.06,317.62,66.91,340.38,4.47,2460683.87,1.53e+03
54106742,21.64,,,,,,,,2460600.5,60600,0.6154,2.64,1.015,1.22,90.60,305.62,327.50,4.26,2460741.91,1.57e+03
54109176,21.47,,,,,,,,2460600.5,60600,0.7014,2.39,0.714,19.51,324.89,81.20,15.91,4.07,2460540.86,1.35e+03
54110458,21.58,,,,,,,,2460600.5,60600,0.7328,1.381,0.369,3.94,107.68,261.81,147.03,2.39,2460358.30,593
54110457,20.68,,,113.9,,,,,2460600.5,60600,0.6970,2.633,0.798,7.83,305.81,134.28,319.07,4.47,2460777.89,1.56e+03
54111265,21.66,,,,,,,,2460600.5,60600,0.7397,1.53,0.398,6.68,182.32,96.47,298.23,2.66,2460719.12,691
54114200,19.65,,,,,,,,2460600.5,60600,0.5402,1.757,0.808,6.94,204.80,225.05,227.82,2.71,2460912.78,850
54115840,20.33,,,,,,,,2460600.5,60600,0.5575,2.227,0.986,15.87,196.18,202.53,59.56,3.47,2460399.63,1.21e+03
54125409,21.83,,,,,,,,2460600.5,60600,0.6865,1.803,0.565,5.52,150.06,100.94,154.48,3.04,2460220.95,885
54125414,21.73,,,,,,,,2460600.5,60600,0.7583,2.168,0.524,5.31,333.04,87.18,66.07,3.81,2460386.46,1.17e+03
54125898,20.86,,,,,,,,2460600.5,60600,0.2869,1.332,0.950,21.64,149.30,221.52,275.88,1.71,2460731.78,562
54130042,20.71,,,,,,,,2460600.5,60600,0.5119,2.145,1.047,8.83,30.58,188.66,30.05,3.24,2460504.71,1.15e+03
54131484,20.78,,,,,,,,2460600.5,60600,0.6666,2.7,0.900,28.50,140.81,126.14,275.93,4.50,2460978.86,1.62e+03
54131736,20.16,,,,,,,,2460600.5,60600,0.7339,2.615,0.696,5.91,182.13,112.65,287.68,4.53,2460910.84,1.54e+03
54133135,20.96,,,,,,,,2460600.5,60600,0.7078,2.816,0.823,6.85,196.18,69.04,260.48,4.81,2461077.53,1.73e+03
54135434,21.76,,,,,,,,2460600.5,60600,0.6060,1.686,0.664,17.03,181.60,278.59,251.65,2.71,2460841.22,800
54135548,21.81,,,,,,,,2460600.5,60600,0.3515,1.523,0.988,5.25,295.08,323.98,280.51,2.06,2460752.13,687
54136195,20.42,,,,,,,,2460600.5,60600,0.7441,1.925,0.493,6.21,336.15,103.99,143.55,3.36,2460211.57,975
54136200,20.19,,,,,,,,2460600.5,60600,0.6649,2.587,0.867,35.67,182.36,122.37,285.78,4.31,2460913.86,1.52e+03
54137790,21.31,,,,,,,,2460600.5,60600,0.3763,1.506,0.939,20.66,33.77,49.70,51.05,2.07,2460504.78,675
54137809,21.73,,,,,,,,2460600.5,60600,0.1936,1.189,0.959,42.74,211.79,215.02,31.09,1.42,2460559.62,473
54137811,21.94,,,,,,,,2460600.5,60600,0.3166,1.057,0.722,15.04,209.52,110.57,6.48,1.39,2460593.36,397
54142826,21.57,,,0.038472,,,,,2460600.5,60600,0.6755,1.122,0.364,28.40,219.54,132.15,281.73,1.88,2460694.82,434
54150700,17.66,,,,,,,,2460600.5,60600,0.6840,3.286,1.038,47.02,187.08,168.83,169.13,5.53,2459578.14,2.18e+03
54143414,18.80,,,,,,,,2460600.5,60600,0.5766,1.595,0.675,36.16,44.51,76.60,299.67,2.51,2460723.82,736
54145212,19.93,,,,,,,,2460600.5,60600,0.9359,2.463,0.158,9.23,10.44,42.50,335.94,4.77,2460694.91,1.41e+03
54146072,21.68,,,,,,,,2460600.5,60600,0.1036,1.119,1.003,26.02,66.92,235.64,268.13,1.23,2460710.85,432
54147407,21.40,,,,,,,,2460600.5,60600,0.5246,2.118,1.007,28.68,69.61,154.31,40.94,3.23,2460472.45,1.13e+03
54161704,19.93,,,,,,,,2460600.5,60600,0.3550,1.519,0.980,15.80,271.28,20.64,274.07,2.06,2460763.71,684
54297314,21.95,,,,,,,,2460600.5,60600,0.3662,0.9611,0.609,6.11,45.20,81.16,294.84,1.31,2460662.79,344
54154697,20.29,,,,,,,,2460600.5,60600,0.6470,2.803,0.989,39.26,110.83,183.57,250.66,4.62,2461121.01,1.71e+03
54157345,21.58,,,,,,,,2460600.5,60600,0.7142,1.727,0.494,3.11,225.41,159.69,144.45,2.96,2460267.94,829
54161318,20.45,,,,,,,,2460600.5,60600,0.1956,0.8924,0.718,40.11,122.83,20.79,103.58,1.07,2460511.90,308
54161734,21.93,,,,,,,,2460600.5,60600,0.8827,2.588,0.304,18.29,267.20,236.69,298.43,4.87,2460860.60,1.52e+03
54161801,18.14,,,,,,,,2460600.5,60600,0.6533,2.763,0.958,24.24,173.93,183.79,241.57,4.57,2461152.24,1.68e+03
54161861,21.32,,,,,,,,2460600.5,60600,0.2880,0.8077,0.575,19.24,273.99,198.98,354.19,1.04,2460604.78,265
54166590,19.67,,,,,,,,2460600.5,60600,0.6213,0.631,0.239,8.56,80.61,358.10,325.96,1.02,2460617.81,183
54166597,20.85,,,,,,,,2460600.5,60600,0.2549,1.276,0.951,24.52,298.14,132.84,343.88,1.60,2460624.08,526
54166600,21.51,,,,,,,,2460600.5,60600,0.5749,2,0.850,9.42,84.07,310.93,23.36,3.15,2460533.45,1.03e+03
54166827,21.84,,,0.2224095,,,,,2460600.5,60600,0.5956,2.454,0.993,6.16,174.74,172.11,289.81,3.92,2460874.33,1.4e+03
54168783,20.44,,,,,,,,2459409.5,59409,0.8688,2.293,0.301,7.67,141.01,295.20,332.01,4.29,2459508.12,1.27e+03
54170851,22.00,,,,,,,,2460600.5,60600,0.6033,2.423,0.961,16.06,306.54,23.84,300.16,3.88,2460829.45,1.38e+03
54178641,20.69,,,,,,,,2460600.5,60600,0.4086,1.559,0.922,6.72,41.45,15.08,172.56,2.20,2460259.85,711
54177976,21.87,,,,,,,,2460600.5,60600,0.2462,1.225,0.924,10.15,152.30,234.00,79.48,1.53,2460491.11,495
54178640,21.56,,,,,,,,2460600.5,60600,0.6006,0.8727,0.349,10.07,315.29,214.69,50.50,1.40,2460558.73,298
54179304,21.20,,,,,,,,2460600.5,60600,0.6496,2.716,0.952,6.73,58.11,330.54,240.43,4.48,2461143.49,1.63e+03
54184281,19.39,,,,,,,,2460600.5,60600,0.3133,0.83,0.570,35.37,352.97,145.38,314.16,1.09,2460635.67,276
54184708,21.20,,,,,,,,2460600.5,60600,0.6679,1.846,0.613,11.30,315.44,267.83,127.36,3.08,2460276.28,916
54186213,21.95,,,,,,,,2460600.5,60600,0.5840,2.487,1.034,8.10,193.18,194.28,275.88,3.94,2460935.23,1.43e+03
54186657,19.22,,,,,,,,2460600.5,60600,0.6402,2.638,0.949,30.48,238.48,156.50,243.64,4.33,2461106.20,1.56e+03
54186659,20.30,,,,,,,,2460600.5,60600,0.3941,1.563,0.947,7.28,83.06,357.32,129.91,2.18,2460342.93,714
54191846,20.11,,,,,,,,2460600.5,60600,0.7343,3.494,0.928,25.42,98.33,319.58,165.30,6.06,2459505.15,2.39e+03
54244192,19.78,,,,,,,,2460600.5,60600,0.4353,1.791,1.012,13.99,25.47,350.14,110.86,2.57,2460330.82,876
54195861,20.99,,,,,,,,2459467.5,59467,0.7106,1.21,0.350,63.29,8.86,126.31,316.33,2.07,2459526.46,486
54196368,21.63,,,,,,,,2460600.5,60600,0.6359,2.391,0.870,10.92,205.16,232.52,279.74,3.91,2460901.50,1.35e+03
54199511,20.52,,,,,,,,2460600.5,60600,0.5982,2.474,0.994,30.98,254.28,16.83,304.41,3.95,2460819.94,1.42e+03
54200300,21.02,,,,,,,,2460600.5,60600,0.7791,1.787,0.395,12.38,208.37,284.82,70.88,3.18,2460428.72,872
54201805,21.57,,,,,,,,2460600.5,60600,0.6970,2.379,0.721,4.76,178.03,290.60,272.65,4.04,2460925.78,1.34e+03
54202335,20.96,,,,,,,,2460600.5,60600,0.4051,1.467,0.873,9.91,161.32,324.97,191.78,2.06,2460903.91,649
54203006,20.47,,,,,,,,2460600.5,60600,0.8073,1.543,0.297,26.40,28.39,129.58,160.80,2.79,2460287.88,700
54202340,21.18,,,,,,,,2459496.5,59496,0.2104,1.25,0.987,40.27,17.89,328.39,31.16,1.51,2459452.31,511
54204643,20.06,,,,,,,,2460600.5,60600,0.5843,2.202,0.915,7.78,46.94,216.50,20.82,3.49,2460531.49,1.19e+03
54206538,21.26,,,,,,,,2460600.5,60600,0.3433,1.307,0.858,21.27,42.24,114.88,255.16,1.76,2460759.48,546
54209486,21.87,,,,,,,,2460600.5,60600,0.1339,1.115,0.966,56.51,31.55,162.37,35.82,1.26,2460557.70,430
54210293,20.20,,,,,,,,2460600.5,60600,0.6775,2.519,0.812,25.41,8.06,116.30,255.11,4.23,2461025.94,1.46e+03
54213618,21.89,,,,,,,,2460600.5,60600,0.4212,1.638,0.948,25.33,218.91,133.30,169.99,2.33,2460238.79,766
54212683,20.75,,,,,,,,2460600.5,60600,0.7453,2.752,0.701,42.59,222.69,67.92,252.18,4.80,2461099.85,1.67e+03
54212684,21.10,,,,,,,,2460600.5,60600,0.6984,2.841,0.857,8.44,349.71,138.32,205.07,4.83,2461353.30,1.75e+03
54213278,21.42,,,,,,,,2460600.5,60600,0.7603,2.034,0.488,6.08,170.85,110.35,34.14,3.58,2460499.99,1.06e+03
54213634,21.64,,,,,,,,2460600.5,60600,0.6677,2.149,0.714,9.48,42.81,108.48,304.68,3.58,2460777.28,1.15e+03
54214050,19.18,,,,,,,,2460600.5,60600,0.7252,1.921,0.528,44.94,62.29,99.00,7.23,3.31,2460580.96,973
54215198,21.35,,,,,,,,2459517.5,59517,0.5904,2.194,0.899,8.32,10.46,296.34,19.31,3.49,2459453.85,1.19e+03
54216372,21.86,,,,,,,,2460600.5,60600,0.5996,2.004,0.802,4.56,262.62,75.55,27.86,3.21,2460520.31,1.04e+03
54216374,21.56,,,,,,,,2459522.5,59522,0.6190,2.551,0.972,39.07,203.97,172.06,7.60,4.13,2459491.06,1.49e+03
54217964,21.11,,,,,,,,2460600.5,60600,0.3446,1.045,0.685,19.81,77.65,80.75,198.47,1.41,2460775.57,390
54217969,21.00,,,,,,,,2460600.5,60600,0.5136,1.863,0.906,11.91,129.41,26.04,10.72,2.82,2460572.84,929
54219296,21.65,,,,,,,,2460600.5,60600,0.3238,1.424,0.963,9.09,315.77,157.35,233.29,1.88,2460818.92,621
54220007,21.24,,,,,,,,2460600.5,60600,0.5821,2.049,0.856,14.78,48.30,323.38,10.29,3.24,2460569.87,1.07e+03
54220857,21.50,,,,,,,,2459527.5,59527,0.3258,0.8863,0.598,4.49,303.53,236.36,274.73,1.18,2459599.69,305
54222424,21.81,,,6.27,,,,,2460600.5,60600,0.4955,2.033,1.026,3.53,131.59,352.34,337.62,3.04,2460666.33,1.06e+03
